CTC1_L_00309001-01
1 47353U 25673DS  26037.47804398  .00000000  00000+0  00000-0 0  9995
2 47353  45.0000   0.0000 0000000   0.0000   0.0000 14.60983372    17
CTC1_L_00309001-02
1 47354U 25269YH  26037.47804398  .00000000  00000+0  00000-0 0  9997
2 47354  45.0000   0.0000 0000000   0.0000  90.0000 14.60983372    17
CTC1_L_00309001-03
1 47355U 23272BP  26037.47804398  .00000000  00000+0  00000-0 0  9990
2 47355  45.0000   0.0000 0000000   0.0000 180.0000 14.60983372    18
CTC1_L_00309001-04
1 47356U 23999AS  26037.47804398  .00000000  00000+0  00000-0 0  9997
2 47356  45.0000   0.0000 0000000   0.0000 270.0000 14.60983372    19
CTC1_L_00309002-01
1 47357U 26975TN  26037.47804398  .00000000  00000+0  00000-0 0  9995
2 47357  45.0000  12.0000 0000000   0.0000  12.0000 14.60983372    17
CTC1_L_00309002-02
1 47358U 24085DJ  26037.47804398  .00000000  00000+0  00000-0 0  9996
2 47358  45.0000  12.0000 0000000   0.0000 102.0000 14.60983372    18
CTC1_L_00309002-03
1 47359U 26542EQ  26037.47804398  .00000000  00000+0  00000-0 0  9997
2 47359  45.0000  12.0000 0000000   0.0000 192.0000 14.60983372    18
CTC1_L_00309002-04
1 47360U 26055SH  26037.47804398  .00000000  00000+0  00000-0 0  9998
2 47360  45.0000  12.0000 0000000   0.0000 282.0000 14.60983372    10
CTC1_L_00309003-01
1 47361U 26232AQ  26037.47804398  .00000000  00000+0  00000-0 0  9996
2 47361  45.0000  24.0000 0000000   0.0000  24.0000 14.60983372    18
CTC1_L_00309003-02
1 47362U 24888AF  26037.47804398  .00000000  00000+0  00000-0 0  9992
2 47362  45.0000  24.0000 0000000   0.0000 114.0000 14.60983372    19
CTC1_L_00309003-03
1 47363U 22660LO  26037.47804398  .00000000  00000+0  00000-0 0  9999
2 47363  45.0000  24.0000 0000000   0.0000 204.0000 14.60983372    10
CTC1_L_00309003-04
1 47364U 23381IF  26037.47804398  .00000000  00000+0  00000-0 0  9991
2 47364  45.0000  24.0000 0000000   0.0000 294.0000 14.60983372    10
CTC1_L_00309004-01
1 47365U 25727AF  26037.47804398  .00000000  00000+0  00000-0 0  9998
2 47365  45.0000  36.0000 0000000   0.0000  36.0000 14.60983372    18
CTC1_L_00309004-02
1 47366U 23268JV  26037.47804398  .00000000  00000+0  00000-0 0  9997
2 47366  45.0000  36.0000 0000000   0.0000 126.0000 14.60983372    19
CTC1_L_00309004-03
1 47367U 22788AV  26037.47804398  .00000000  00000+0  00000-0 0  9994
2 47367  45.0000  36.0000 0000000   0.0000 216.0000 14.60983372    10
CTC1_L_00309004-04
1 47368U 22884JC  26037.47804398  .00000000  00000+0  00000-0 0  9992
2 47368  45.0000  36.0000 0000000   0.0000 306.0000 14.60983372    11
CTC1_L_00309005-01
1 47369U 22789XA  26037.47804398  .00000000  00000+0  00000-0 0  9997
2 47369  45.0000  48.0000 0000000   0.0000  48.0000 14.60983372    18
CTC1_L_00309005-02
1 47370U 22520GY  26037.47804398  .00000000  00000+0  00000-0 0  9992
2 47370  45.0000  48.0000 0000000   0.0000 138.0000 14.60983372    10
CTC1_L_00309005-03
1 47371U 23920TF  26037.47804398  .00000000  00000+0  00000-0 0  9998
2 47371  45.0000  48.0000 0000000   0.0000 228.0000 14.60983372    11
CTC1_L_00309005-04
1 47372U 22870AZ  26037.47804398  .00000000  00000+0  00000-0 0  9992
2 47372  45.0000  48.0000 0000000   0.0000 318.0000 14.60983372    12
CTC1_L_00309006-01
1 47373U 25898CD  26037.47804398  .00000000  00000+0  00000-0 0  9996
2 47373  45.0000  60.0000 0000000   0.0000  60.0000 14.60983372    11
CTC1_L_00309006-02
1 47374U 25322IR  26037.47804398  .00000000  00000+0  00000-0 0  9999
2 47374  45.0000  60.0000 0000000   0.0000 150.0000 14.60983372    12
CTC1_L_00309006-03
1 47375U 25362HS  26037.47804398  .00000000  00000+0  00000-0 0  9994
2 47375  45.0000  60.0000 0000000   0.0000 240.0000 14.60983372    13
CTC1_L_00309006-04
1 47376U 25535BY  26037.47804398  .00000000  00000+0  00000-0 0  9997
2 47376  45.0000  60.0000 0000000   0.0000 330.0000 14.60983372    14
CTC1_L_00309007-01
1 47377U 26411MJ  26037.47804398  .00000000  00000+0  00000-0 0  9992
2 47377  45.0000  72.0000 0000000   0.0000  72.0000 14.60983372    11
CTC1_L_00309007-02
1 47378U 25204AT  26037.47804398  .00000000  00000+0  00000-0 0  9992
2 47378  45.0000  72.0000 0000000   0.0000 162.0000 14.60983372    12
CTC1_L_00309007-03
1 47379U 24959PW  26037.47804398  .00000000  00000+0  00000-0 0  9999
2 47379  45.0000  72.0000 0000000   0.0000 252.0000 14.60983372    13
CTC1_L_00309007-04
1 47380U 24027WZ  26037.47804398  .00000000  00000+0  00000-0 0  9997
2 47380  45.0000  72.0000 0000000   0.0000 342.0000 14.60983372    15
CTC1_L_00309008-01
1 47381U 22505AF  26037.47804398  .00000000  00000+0  00000-0 0  9997
2 47381  45.0000  84.0000 0000000   0.0000  84.0000 14.60983372    12
CTC1_L_00309008-02
1 47382U 24787DQ  26037.47804398  .00000000  00000+0  00000-0 0  9992
2 47382  45.0000  84.0000 0000000   0.0000 174.0000 14.60983372    13
CTC1_L_00309008-03
1 47383U 24403GB  26037.47804398  .00000000  00000+0  00000-0 0  9998
2 47383  45.0000  84.0000 0000000   0.0000 264.0000 14.60983372    14
CTC1_L_00309008-04
1 47384U 23272JF  26037.47804398  .00000000  00000+0  00000-0 0  9992
2 47384  45.0000  84.0000 0000000   0.0000 354.0000 14.60983372    15
CTC1_L_00309009-01
1 47385U 23965OE  26037.47804398  .00000000  00000+0  00000-0 0  9992
2 47385  45.0000  96.0000 0000000   0.0000  96.0000 14.60983372    12
CTC1_L_00309009-02
1 47386U 22719MB  26037.47804398  .00000000  00000+0  00000-0 0  9999
2 47386  45.0000  96.0000 0000000   0.0000 186.0000 14.60983372    13
CTC1_L_00309009-03
1 47387U 24467AF  26037.47804398  .00000000  00000+0  00000-0 0  9992
2 47387  45.0000  96.0000 0000000   0.0000 276.0000 14.60983372    14
CTC1_L_00309009-04
1 47388U 22665AI  26037.47804398  .00000000  00000+0  00000-0 0  9991
2 47388  45.0000  96.0000 0000000   0.0000   6.0000 14.60983372    16
CTC1_L_00309010-01
1 47389U 22656KD  26037.47804398  .00000000  00000+0  00000-0 0  9992
2 47389  45.0000 108.0000 0000000   0.0000 108.0000 14.60983372    14
CTC1_L_00309010-02
1 47390U 24109IJ  26037.47804398  .00000000  00000+0  00000-0 0  9999
2 47390  45.0000 108.0000 0000000   0.0000 198.0000 14.60983372    15
CTC1_L_00309010-03
1 47391U 24221QP  26037.47804398  .00000000  00000+0  00000-0 0  9995
2 47391  45.0000 108.0000 0000000   0.0000 288.0000 14.60983372    16
CTC1_L_00309010-04
1 47392U 24693KV  26037.47804398  .00000000  00000+0  00000-0 0  9999
2 47392  45.0000 108.0000 0000000   0.0000  18.0000 14.60983372    18
CTC1_L_00309011-01
1 47393U 22588YJ  26037.47804398  .00000000  00000+0  00000-0 0  9991
2 47393  45.0000 120.0000 0000000   0.0000 120.0000 14.60983372    17
CTC1_L_00309011-02
1 47394U 25497JO  26037.47804398  .00000000  00000+0  00000-0 0  9994
2 47394  45.0000 120.0000 0000000   0.0000 210.0000 14.60983372    18
CTC1_L_00309011-03
1 47395U 25571UL  26037.47804398  .00000000  00000+0  00000-0 0  9998
2 47395  45.0000 120.0000 0000000   0.0000 300.0000 14.60983372    19
CTC1_L_00309011-04
1 47396U 26034DN  26037.47804398  .00000000  00000+0  00000-0 0  9994
2 47396  45.0000 120.0000 0000000   0.0000  30.0000 14.60983372    10
CTC1_L_00309012-01
1 47397U 25733TO  26037.47804398  .00000000  00000+0  00000-0 0  9990
2 47397  45.0000 132.0000 0000000   0.0000 132.0000 14.60983372    17
CTC1_L_00309012-02
1 47398U 26222KE  26037.47804398  .00000000  00000+0  00000-0 0  9995
2 47398  45.0000 132.0000 0000000   0.0000 222.0000 14.60983372    18
CTC1_L_00309012-03
1 47399U 25393PG  26037.47804398  .00000000  00000+0  00000-0 0  9994
2 47399  45.0000 132.0000 0000000   0.0000 312.0000 14.60983372    19
CTC1_L_00309012-04
1 47400U 23794AD  26037.47804398  .00000000  00000+0  00000-0 0  9990
2 47400  45.0000 132.0000 0000000   0.0000  42.0000 14.60983372    12
CTC1_L_00309013-01
1 47401U 26553IW  26037.47804398  .00000000  00000+0  00000-0 0  9997
2 47401  45.0000 144.0000 0000000   0.0000 144.0000 14.60983372    19
CTC1_L_00309013-02
1 47402U 26685SR  26037.47804398  .00000000  00000+0  00000-0 0  9994
2 47402  45.0000 144.0000 0000000   0.0000 234.0000 14.60983372    10
CTC1_L_00309013-03
1 47403U 22381RY  26037.47804398  .00000000  00000+0  00000-0 0  9994
2 47403  45.0000 144.0000 0000000   0.0000 324.0000 14.60983372    11
CTC1_L_00309013-04
1 47404U 26708PA  26037.47804398  .00000000  00000+0  00000-0 0  9992
2 47404  45.0000 144.0000 0000000   0.0000  54.0000 14.60983372    12
CTC1_L_00309014-01
1 47405U 22501UF  26037.47804398  .00000000  00000+0  00000-0 0  9990
2 47405  45.0000 156.0000 0000000   0.0000 156.0000 14.60983372    19
CTC1_L_00309014-02
1 47406U 23750LR  26037.47804398  .00000000  00000+0  00000-0 0  9998
2 47406  45.0000 156.0000 0000000   0.0000 246.0000 14.60983372    10
CTC1_L_00309014-03
1 47407U 22206BI  26037.47804398  .00000000  00000+0  00000-0 0  9994
2 47407  45.0000 156.0000 0000000   0.0000 336.0000 14.60983372    11
CTC1_L_00309014-04
1 47408U 22202QP  26037.47804398  .00000000  00000+0  00000-0 0  9991
2 47408  45.0000 156.0000 0000000   0.0000  66.0000 14.60983372    12
CTC1_L_00309015-01
1 47409U 23728OF  26037.47804398  .00000000  00000+0  00000-0 0  9996
2 47409  45.0000 168.0000 0000000   0.0000 168.0000 14.60983372    19
CTC1_L_00309015-02
1 47410U 22075BZ  26037.47804398  .00000000  00000+0  00000-0 0  9992
2 47410  45.0000 168.0000 0000000   0.0000 258.0000 14.60983372    11
CTC1_L_00309015-03
1 47411U 23228SD  26037.47804398  .00000000  00000+0  00000-0 0  9994
2 47411  45.0000 168.0000 0000000   0.0000 348.0000 14.60983372    12
CTC1_L_00309015-04
1 47412U 22688XW  26037.47804398  .00000000  00000+0  00000-0 0  9994
2 47412  45.0000 168.0000 0000000   0.0000  78.0000 14.60983372    13
CTC1_L_00309016-01
1 47413U 24617AO  26037.47804398  .00000000  00000+0  00000-0 0  9999
2 47413  45.0000 180.0000 0000000   0.0000 180.0000 14.60983372    12
CTC1_L_00309016-02
1 47414U 23535YZ  26037.47804398  .00000000  00000+0  00000-0 0  9998
2 47414  45.0000 180.0000 0000000   0.0000 270.0000 14.60983372    13
